STARLINK-30933          
1 58410U 23180J   26068.58393184 -.00005792  00000+0 -20111-3 0  9997
2 58410  42.9954 267.3407 0000341 347.1616  12.9227 15.27584539129327
COSMOS 2588             
1 64095U 25109A   26068.81179522  .00009169  00000+0  32611-3 0  9998
2 64095  72.9704  73.5401 0005019 308.6780  51.3966 15.29122656 44425
